name,phone,country,city
Oliviero Robertacci,595-519-3487,Brazil,São Gabriel
Jeffrey Engel,704-332-8664,Sweden,Finspång
Humbert Bonner,361-176-3624,Gambia,Baro Kunda
Thea Shingler,254-697-0348,Colombia,Cotorra
Edmund Allmen,591-330-7387,China,Dayong
Warde Ionn,270-585-1344,Indonesia,Cibenda
Alexis Calladine,184-601-6267,El Salvador,Antiguo Cuscatlán
Alma Hallbird,489-512-8166,China,Fengmu
Brade Tuffs,791-796-2150,Ukraine,Kotsyubyns’ke
Amby Erricker,600-192-0038,Russia,Inderka
Gallard Beaton,594-392-7422,Albania,Pukë
Emanuele Fuentez,729-218-0956,Belarus,Dashkawka
Valera Cardiff,206-636-6107,Russia,Turka
Hercules Pixton,577-172-4993,Indonesia,Mranggen
Edmon Whetland,752-442-1468,Burkina Faso,Dori
Vincenz Frandsen,443-800-8742,Macedonia,Berovo
Danit Haulkham,502-759-1153,Portugal,Penedo
Merrick Brunelli,564-232-6553,China,Baise City
Emory Thirwell,449-241-2359,Brazil,Perdões
Hyacinthie Arthy,868-499-6467,China,Hongqiao
Vikki Wallsam,755-794-6677,Portugal,Colos
Armand Widdocks,659-667-9836,Russia,Izvestkovyy
Jerrine Northey,680-518-3213,Russia,Voronezh
Auroora Amiable,761-167-4217,France,Paris 02
Conn Bilsland,941-921-9996,Malaysia,Shah Alam
Murray Tickle,814-259-3545,Indonesia,Randegan
Emilia Pepineaux,199-631-1977,Thailand,Wang Nam Yen
Hilly Janas,947-608-6936,China,Weishan
Way Pantin,970-835-5951,China,Benhong
Constantine Dewfall,776-115-0145,China,Zoushi
Leeanne Whenham,258-122-1657,Bahamas,Duncan Town
Helaine Jancey,753-535-4768,Sweden,Lidköping
Gloriane Lidden,374-208-7900,Peru,Pajarillo
Mac Plume,470-295-4857,Sudan,El Matama
Andris Beamont,755-501-7729,China,Jiegan
Brady De Vries,409-315-4333,Philippines,Bodega
Lynnette Cubbinelli,803-908-7860,China,Libu
Salvador Lyburn,184-759-5270,Brazil,Marataizes
Gustavus Smalcombe,194-630-1192,Portugal,Sobreira
Petronille Crevy,219-263-3870,Croatia,Tužno
Antoinette Pedden,948-104-2541,Russia,Biryulëvo
Vally Eric,415-777-2390,Sweden,Tyresö
Margot Melmoth,916-364-0194,China,Xindong
Thadeus Becerro,259-537-0688,China,Hengshitang
Amandie Rogeon,906-608-7781,Indonesia,Busalangga
Emelia Sey,729-157-6431,Colombia,Granada
Marjie Airth,894-517-0614,Poland,Konin
Dora Schach,802-614-8198,Colombia,Pereira
Dale Kenworthey,336-945-3786,Indonesia,Cipicung
Louella Kenzie,656-217-4770,Colombia,Pitalito
Jeanette Cattrell,955-951-3989,Portugal,Ponta da Garça
Anselma Esmonde,907-378-3794,Portugal,Maia
Maurine Coulthart,550-219-2126,Russia,Khvalynsk
Lucias Vears,466-764-2811,Thailand,Sathon
Whitaker Hanny,502-712-3817,China,Peicheng
Rubina Zammitt,800-208-9967,Poland,Mogilany
Filmer Ledgard,281-693-6899,Azerbaijan,Ağdam
Mae Strettell,827-689-2667,Philippines,Basista
Korry Chestnut,571-159-1167,Brazil,Artur Nogueira
Melessa Tunder,959-555-7436,China,Bor Ondor
Charis Jukes,286-294-1519,Tanzania,Izazi
Lynde Pauletti,729-251-1367,Croatia,Vođinci
Augy Facher,681-945-4697,Colombia,Pradera
Wheeler McCunn,951-678-4109,Nigeria,Gashua
Georgie Gadd,976-438-8634,Russia,Temyasovo
Mommy Burren,668-493-5046,Philippines,San Miguel
Christean Heigold,295-437-9088,Canada,Saint-Lin-Laurentides
Danyelle Hantusch,457-796-9424,Lesotho,Maputsoe
Bastien Huxley,369-580-6878,Vietnam,Thị Trấn Hà Trung
Pate Vogl,843-327-4632,Russia,Psygansu
Chrystel Garralts,963-203-5412,Poland,Wąwolnica
Thatcher Hurl,209-523-8290,Russia,Anzhero-Sudzhensk
Cherin Pollendine,922-414-8038,Ukraine,Verkhniy Rohachyk
Nannette Otton,808-310-0510,Macedonia,Oslomej
Kinnie Collet,550-439-8713,Guatemala,San Miguel Ixtahuacán
Richie Perri,882-808-6153,China,Xinglin
Leese Van de Velde,699-457-5976,Mexico,San Diego
Dasha Piken,867-724-7977,Portugal,São Mamede
Tyler Faiers,256-521-4364,China,Chendian
Hillie Bourner,210-942-8219,Philippines,Calsib
Case Succamore,137-825-5054,Malaysia,Kota Kinabalu
Adair Rzehorz,698-851-4851,Indonesia,Taraju
Luella Taffarello,804-728-7365,China,Wangjing
Luther Storms,400-270-4587,Colombia,Quípama
Bernardine Gornar,181-394-3945,Indonesia,Padang
Danni Kurth,867-687-2279,China,Tayuan
Gayla Brownstein,443-769-5686,Morocco,Tahala
Jobye Berriman,510-615-9887,Russia,Podosinovets
Betti Creasy,852-946-7853,Italy,Genova
Meriel Darley,731-921-8813,Argentina,Ciervo Petiso
Anitra Stubbings,903-311-3117,China,Songshan
Blanche MacNess,796-788-4236,Indonesia,Sumberejo
Darn Larking,578-963-3213,Costa Rica,La Suiza
Everard Righy,966-905-2158,Peru,Quellouno
Tobie Stanier,527-792-5558,Belarus,Mar’’ina Horka
Storm Allden,304-524-1339,France,Montauban
Enriqueta Stratten,973-871-1278,China,Baita
Kary Harpham,356-940-8859,Chile,Остров Пасхи
August Sanzio,457-163-7352,China,Lincheng
Urbain Ascrofte,906-915-0126,Indonesia,Muyaka
Selina Coghlan,162-116-5303,China,Chengnan
Gustavus Dengel,737-894-7310,France,Paris 17
Darcy Crighton,572-876-9884,Peru,Casma
Libbey Gauld,113-138-0799,Russia,Mosal’sk
Kelcey Ellerton,810-739-1077,China,Shilin
Elsie Moylan,140-648-5951,Cameroon,Banyo
Yuri Dary,660-219-2026,Portugal,Montes
Raina Mechan,150-713-9841,Russia,Miass
Osborne Revett,853-595-2658,Haiti,Gonayiv
Roxine Kenforth,269-808-6168,Panama,Cañazas
Kandace Westcott,140-928-9868,Armenia,K’anak’erravan
Harmon Chrystie,582-544-3036,Poland,Wysokie Mazowieckie
Deidre Woolvett,460-115-5546,China,Zhongba
Erna Cattach,580-599-4081,Sweden,Västerås
Vina Handlin,235-296-9044,China,Baisha
Bonny Trangmar,573-560-0082,China,Bayan
Valerie Dalwood,756-843-4490,China,Xiaozhoushan
Monah Kingwell,803-857-8048,France,Levallois-Perret
Ericha Gloucester,408-800-7022,Greece,Káto Glikóvrisi
Rosalia Tudhope,248-565-7278,South Korea,Imsil
Hakim Finicj,361-123-3075,Japan,Itō
Alyss Haldon,288-735-7417,Gambia,Gunjur Kuta
Trudy Southon,296-757-8353,Portugal,Machico
Malory Godmer,346-647-0037,China,Xin’an
Tobye Kembery,394-359-7303,Portugal,Ponte
Coraline Conlaund,838-166-2166,Philippines,Haguimit
Gardy Townsley,577-825-1620,Canada,Metchosin
Carena Ramos,932-577-2177,China,Huangqiang
Eolande Cornall,818-847-1369,Portugal,Mondim de Basto
Mufinella Kelling,971-292-1371,Indonesia,Kapuan
Julia Jonuzi,921-169-4728,Pakistan,Kot Sultan
Lezley Hazeman,660-776-6337,South Africa,Willowmore
Alana Nucator,742-737-4553,Thailand,Phayakkhaphum Phisai
Meade Gaskins,122-276-6374,Argentina,Marcos Juárez
Camile Eve,460-864-9275,Brazil,Campos Novos
Granville Denziloe,470-988-3517,Malawi,Karonga
Perri Blackford,795-971-4373,France,Moulins
Eduardo Roland,624-880-8640,Poland,Zarszyn
Bryon Loffel,312-383-2697,China,Jianxin
Verge Duiged,860-154-8336,Portugal,Prado
Sean Henzley,411-618-7646,Syria,‘Ayn an Nasr
Elsworth McGragh,915-767-3402,United States,El Paso
Lorrie Brewers,772-874-0394,China,Baga Borihe
Kyle Batters,466-880-1700,Tanzania,Mtimbira
Lucian Clemo,540-256-1299,Iran,Zarrīn Shahr
Tiebout Havenhand,522-419-8419,China,Chengdong
Agnola Lehrmann,655-615-7989,Ireland,Sandyford
Sargent Brocklehurst,387-118-3633,Portugal,Eido
Christan Kemwal,220-546-7853,Cameroon,Kribi
Guenna Espinal,493-153-8638,Japan,Nagato
Ennis Bragge,691-227-7769,Poland,Barlinek
Aile Balasin,897-903-0994,Philippines,Urdaneta
Darci Hayden,858-670-8152,China,Huaihua
Mill Maides,593-240-2548,Russia,Usman’
Hastie Telling,583-740-9693,China,Moshiyi
Tabor McNeilly,763-133-4417,Argentina,Samuhú
Johan Cornwell,992-863-4011,Mexico,Guadalupe
Mellisent Schottli,356-983-3081,Indonesia,Siluman
Mitzi Berney,646-191-1162,Kazakhstan,Khantaghy
Lonnie Worsalls,978-809-3599,Zambia,Senanga
Dasya Northley,107-157-6412,China,Xinmatou
Dorie Marr,969-365-7935,China,Songmuping
Rowena Cowton,631-599-3613,Mongolia,Baruunsuu
Brien Vaune,671-723-4289,China,Paisha
Cathrin Espinheira,668-507-2133,Albania,Allkaj
Fulvia Vonderdell,965-202-4616,Russia,Oktyabr’skiy
Hewett Haycock,863-979-4312,Italy,Catania
Josselyn Presshaugh,588-895-2534,Sudan,Abū Zabad
Robinet Kneller,882-317-8455,Ukraine,Petropavlivka
Kingsley Cork,932-547-8998,Czech Republic,Březová nad Svitavou
Silvio Skottle,715-641-9644,China,Yiyang
Hilly McCafferky,601-656-8423,Taiwan,Zhubei
Emmeline Marusyak,791-228-0494,China,Tongyuanpu
Alonso Foch,108-526-5213,Mongolia,Tsagaan-Olom
Thaddus Adey,483-574-3069,Russia,Leninsk
Archie Scotter,502-301-6333,Sweden,Ljungskile
Joannes Swaden,364-810-9753,Niger,Tessaoua
Ana O'Henehan,692-873-2755,Portugal,Cova da Iria
Wainwright MacTrusty,210-618-7961,China,Cangqian
Josi Mostyn,814-794-7292,Indonesia,Gambut
Bogey Conley,591-843-4039,Sweden,Ljungskile
Leia Vittori,981-392-0122,China,Jincang
Ursa Pearcy,730-279-4557,Russia,Goyty
Marianne Levi,668-330-4585,Sri Lanka,Kadugannawa
Talbot Worden,385-195-4576,Mozambique,António Enes
Wini Slateford,508-315-2342,Philippines,Bugcaon
Rockie Lawlee,676-701-3164,China,Shanxia
Martha Bucksey,581-833-9788,Finland,Masku
Enrico MacMenemy,336-893-4033,France,Paris La Défense
Inness Gopsall,420-181-9530,Honduras,El Suyatal
Riley McCallam,606-159-9967,Portugal,Bemposta
Karylin Skeete,947-792-2720,China,Yuetang
Hartwell Canape,334-969-5102,United States,Montgomery
Bonnibelle Fish,256-104-0334,United States,Huntsville
Tildi Tulley,694-127-9186,China,Baohe
Joice Lawland,996-259-0924,Afghanistan,Charikar
Maurizio Ramel,697-701-9272,Canada,Windsor
Howie Scamadin,355-544-8603,Philippines,Tangal
Amalita Cookman,755-132-6078,Argentina,Comallo
Kippy Rafter,240-962-1618,Brazil,Itaparica
Adella McGiffie,835-402-9062,Sweden,Rönninge
Roxana Malimoe,510-645-8352,Venezuela,Jacura
Feodor Pixton,433-127-8503,Sweden,Solna
Olive Bruin,217-815-7158,Peru,Paucarbamba
Blinni Mc Faul,197-782-1401,China,Heyu
Caty Fazan,401-628-2355,China,Huangtugang
Daisi Scogings,724-209-8178,Brazil,Paulínia
Allayne Yule,425-977-8761,Indonesia,Baopukang
Billi Gladebeck,878-647-6491,Russia,Verkhniy Avzyan
Yancy Goudman,565-338-1782,China,Maoming
Lancelot Hassey,885-989-9392,China,Lengji
Amandi Colhoun,858-526-3332,United States,San Francisco
Obadiah Hinge,711-388-1320,Canada,Bancroft
Nanni Rissen,364-901-9068,Portugal,Avelar
Antoine Yateman,113-568-9116,China,Mushu
Herta Mannakee,918-283-7865,Indonesia,Cibingbin
Dolorita Mylechreest,883-935-2488,China,Zhongdong
Darius Inglese,570-679-4185,Bulgaria,Yambol
Leslie Tyson,694-428-5899,China,Beiling
Audy Hannum,183-739-1277,China,Laoshawan
Olympie De La Salle,369-696-3577,Russia,Otradnoye
Ikey Dearl,307-753-8357,China,Mingshui
Jaime Canas,129-884-6640,Russia,Sergiyev Posad
Brenda Few,375-674-9570,France,Port-de-Bouc
Marrilee Fausset,332-491-0613,Albania,Gostimë
Sally Olyunin,212-888-9633,China,Dongping
Arny Morrel,627-899-2931,Indonesia,Krajan Tegalombo
Vern Deeks,149-433-9709,Portugal,Quintão
Francklin Talboy,481-735-6453,Colombia,Regidor
Ceil Iiannoni,578-992-7955,France,Thaon-les-Vosges
Raddie Gaitskell,158-867-5699,Moldova,Rîşcani
Walton Breacher,587-599-0457,Macedonia,Otlja
Elyse Fermoy,340-678-2920,Peru,Taurija
Danita Folds,226-718-5274,Belarus,Aktsyabrski
Gawain Lamey,435-725-3443,Mongolia,Choibalsan
Frances Willgoose,284-260-7266,Japan,Shisui
Averyl Utton,687-584-2863,Croatia,Gradići
Pearl Gouldthorpe,268-481-6546,Germany,Bremen
Julissa Gerkens,123-161-8888,Pakistan,Ghauspur
Mollee Pharo,995-183-6688,China,Chiguang
Nessie Dankov,210-119-2213,China,Qiaogu
Moira Vinker,546-769-8150,Colombia,Murillo
Catherina Carleton,550-846-1114,China,Baoshan
Rustin Bloomer,713-193-5110,Norway,Stavanger
Guilbert Hursthouse,360-638-0289,Ivory Coast,Agnibilékrou
Morton Gopsall,458-334-9411,China,Lijie
Bridget Faunt,549-509-0668,Russia,Lesnikovo
Domenico Yarnell,241-294-7671,Iran,Farmahīn
Matthieu Reeday,909-323-4285,Nigeria,Omuo-Ekiti
Petronille Cottell,485-990-4488,Indonesia,Tumpukrenteng
Emilio Collie,655-432-5111,China,Xinqiao
Kai Christauffour,468-532-4685,China,Huangcun
Trix Livingstone,680-788-8734,Brazil,Rancharia
Krishnah Tabram,368-605-8805,Peru,Curibaya
Glyn Walentynowicz,752-439-2011,China,Xiaoqi
Dory Ganniclifft,286-429-1059,Russia,Dubki
Pietrek Hamber,551-517-3289,China,Ala
Dione Gudgin,284-967-1109,Sweden,Falun
Veradis Greensides,984-356-3099,Peru,Buenos Aires
Darby Farrey,933-258-9340,Japan,Iwatsuki
Fina Dommerque,144-202-3372,Estonia,Põltsamaa
Isaak Vlasin,978-198-8530,Portugal,Areeiro
Truman Hargrove,779-128-9319,China,Xilai
Raye Toun,705-815-6098,Indonesia,Matur
Grannie Vlach,993-763-7601,China,Anyu
Sal Goldbourn,772-160-8625,United States,Port Saint Lucie
Wainwright Featherston,754-743-0213,Haiti,Grande Rivière du Nord
Abey Scartifield,837-529-9349,Japan,Haebaru
Godart Lude,445-417-5161,Indonesia,Warung Wetan
Toddie Carillo,499-943-3587,Czech Republic,Světlá nad Sázavou
Allan Buchan,326-738-1605,Portugal,Capela
Averill Scandrite,516-798-2402,United States,Great Neck
Meg Elgy,812-814-3426,United States,Jeffersonville
Saleem Thorouggood,301-621-3893,France,Orléans
Clarissa Le Blond,119-538-5754,Indonesia,Pasarbaru
Bonny Gabbat,431-917-0638,Peru,Pampas
Frederik Livingstone,263-204-7000,Poland,Przelewice
Jessi Abbotts,398-819-7162,Palestinian Territory,Za‘tarah
Trumaine Strutt,218-662-8486,Sierra Leone,Jojoima
Vita Northey,849-328-3032,Ukraine,Zaporizhzhya
Silvana Cutten,759-139-9752,Central African Republic,Gambo
Alejoa Hardbattle,611-707-6253,Philippines,Malitubog
Shannan Bedburrow,615-280-2000,China,Daixi
Kiele Hof,909-917-6022,Argentina,Pico Truncado
Karlan MacAndreis,656-691-5512,Mexico,Benito Juarez
Ricca Pierse,274-307-8924,Canada,Penticton
Seward Lackey,634-605-8270,Mongolia,Tahilt
Janka Christall,173-494-5778,Chile,Puente Alto
Suki Olohan,209-134-7092,Indonesia,Kool Tengah
Chloe Whyard,570-940-9018,Peru,Moche
Lorenza Wilcott,350-540-3886,China,Guanting
Ellswerth Bartolomeu,341-432-0863,China,Li’an
Phillipe MacNamara,782-383-1494,Guatemala,San Bernardino
Godart Zorzetti,631-591-8757,China,Gaohe
Nicolina Blackney,614-137-6609,China,Longhe
Buffy Pursglove,555-200-7025,Indonesia,Paya Dapur
Lucais Robertacci,356-435-0881,China,Gaoqiao
Margot McMoyer,385-808-5437,Russia,Novosmolinskiy
Sauveur Andreou,692-953-3740,Poland,Święciechowa
Broddy Trass,815-202-1559,France,Marne-la-Vallée
Mirabel Dragonette,238-465-2761,China,Shekou
Brittni Buffham,785-716-4648,Indonesia,Kasembon
Coraline Saunton,233-193-4625,Mexico,Las Americas
Frannie Hurst,662-557-4763,China,Huayuan
Dud Bess,959-711-1139,Guatemala,Zaragoza
Revkah Crudge,323-393-7482,East Timor,Aileu
Malachi Golton,742-933-1743,Brazil,Miracema
Adella Arboine,635-581-4034,Russia,Verkhniy Mamon
Stormie Kilmary,126-334-8555,Philippines,San Francisco
Mickie Duckfield,932-172-3010,Poland,Bystra
Lemar Bowbrick,933-776-6445,China,Yanghe
Sigismundo Caro,394-860-0285,Russia,Kvartsitnyy
Lucian Denver,536-273-2876,China,Huanfeng
Neale Mowatt,872-214-6565,France,Rungis
Ernest Kabos,566-411-1648,Brazil,Nova Russas
Nerita Bartaloni,926-298-7451,Philippines,Taltal
Stevy Maggs,168-129-1826,Iran,Pīshvā
Nancee Aked,688-843-4548,Argentina,Alejo Ledesma
Johnette Ding,607-183-2567,Georgia,Ts’khinvali
Marlowe Albone,854-375-2265,South Africa,Piketberg
Waylen Kinsell,342-961-7314,France,Cambrai
Pietra Hamner,582-371-5130,Russia,Kuzhorskaya
Theodor Eltune,364-641-1067,Lithuania,Visaginas
Cassy Kiloh,975-585-4472,Portugal,Foros da Catrapona
Conrad Alecock,504-481-7809,South Africa,Tarkastad
Art Spurdon,876-976-7308,Iraq,Ar Ruţbah
Symon Reame,910-373-4671,Poland,Myślenice
Arlan Arens,281-478-1682,Uzbekistan,Qorashina
Georgie Skough,126-584-0699,China,Tucheng
Hope Hetterich,468-243-5147,Argentina,Valle Grande
Nananne Lysaght,535-143-4340,Peru,Caspisapa
George Jepensen,706-163-2673,Brazil,Piraí do Sul
Norman Ferreira,122-781-0620,China,Daishan
Rochell Bugbird,689-118-7637,Russia,Shar’ya
Caroline Motten,700-624-4963,China,Leping
Brianna Emig,638-924-6746,Philippines,East Migpulao
Tommy Gunney,614-347-1707,Philippines,Dungon
Bonita Adie,402-218-6059,Indonesia,Rukem
Mirabel Maffulli,883-714-6436,Canada,Torbay
Benyamin Leavens,557-902-0603,China,Sanxi
Rabi Constant,367-603-8362,Brazil,Penedo
Loydie Izac,400-764-3678,Vietnam,Yên Mỹ
Neil Ort,864-263-9942,Thailand,Bang Kruai
Bryce Emanuelli,933-657-1528,China,Sandu
Chiquia Iuorio,249-647-6083,Indonesia,Karangwaru
Clio Lafflina,823-226-9980,Brazil,Uruguaiana
Marie-jeanne Straun,189-362-9680,Indonesia,Cimara
Alejandro Patron,825-850-5630,Brazil,Santa Cecília
Stillman Kerslake,782-373-1368,Nepal,Hitura
Aharon Boddie,682-650-0033,Palestinian Territory,Far‘ūn
Teresita d' Eye,180-816-0603,Indonesia,Bangunsari
Jocelin O' Sullivan,822-787-7449,Philippines,Minapan
Regine Stollsteimer,913-921-7340,Indonesia,Cibolang
Costa Buttery,113-571-0149,Chile,Vilcún
Laurianne Makeswell,182-593-0306,China,Chenggang
Alfy Rediers,668-444-7595,Brazil,Ilhabela
Kippar Kuschek,434-958-9630,Brazil,Caçapava
Abby Osanne,415-799-0252,Colombia,Gigante
Noach Rapin,871-203-1250,France,Guebwiller
Annabela Jeannon,607-293-7942,Indonesia,Tilamuta
Eugenius Janaszkiewicz,702-531-8161,China,Jiezi
Karil Haws,549-854-9356,China,Changshan
Wilona Burnel,725-568-6206,Philippines,Mexico
Wolfie Brill,662-867-6129,China,Hongyansi
Arleta Lytton,417-764-7774,Uruguay,Salto
Kristien Stillgoe,468-576-2667,China,Heqiao
Reta Halbeard,333-115-0028,Philippines,Busuanga
Dion Twells,477-799-8863,Portugal,Bárrio
Maximilian Zorzin,353-288-6000,Thailand,Hang Dong
Fay Bowlands,616-449-5004,Poland,Ostrowsko
Noam Gosswell,691-881-1235,Ecuador,Ibarra
Ulrich Bussen,129-109-2118,China,Matoupu
Tessy Maker,245-447-4029,Brazil,Caçador
Tammie Causton,982-407-4576,Canada,White Rock
Flossi Arnholtz,750-546-3593,Mauritius,Grand Bois
Cassie Entissle,124-302-3637,Austria,Sankt Andrä-Höch
Wallas Ruger,485-531-1962,Ireland,Belmullet
Emelen Kale,819-278-1804,Bosnia and Herzegovina,Mrkonjić Grad
Drucie Huc,979-234-0111,China,Tumxuk
Silva Boog,685-638-8726,France,Rouen
Elfrida Leathers,501-663-9390,Sweden,Ljungby
Coop BURWIN,327-444-5442,Sweden,Farsta
Evyn Mocher,963-879-5597,Indonesia,Druju
Murdock Daverin,658-555-7933,China,Ditang
Vernon Giacoboni,503-176-9809,Iran,Sarāb
Eba Dainton,775-573-1049,China,Shagang
Alick Larcher,501-863-8661,China,Zhucun
Lucio Doe,429-210-3463,Ethiopia,Finote Selam
Malvin Mowlam,512-503-5991,Turkmenistan,Büzmeýin
Mehetabel Tythe,175-937-2375,Venezuela,Santa María de Caparo
Lammond Upex,481-315-1821,Sweden,Örnsköldsvik
Gale Van Son,983-435-8626,China,Shisandaogou
Analise Lichfield,238-244-0652,Czech Republic,Velké Karlovice
Jessey Absolom,953-322-7639,Portugal,Manique de Baixo
Dallis Astill,180-246-4334,Brazil,Livramento do Brumado
Petrina Reicherz,638-247-4330,France,Limoges
Allys McClarence,721-132-3242,Thailand,Khanu Woralaksaburi
Nata Genny,954-906-0632,Indonesia,Wairiang
Elicia Croxton,543-468-7850,China,Sanhe
Immanuel Ilyukhov,895-775-0401,China,Enhe Hada
Amandy Hawkings,941-527-2918,Somalia,Laascaanood
Josie Lantiff,469-278-1963,China,Huangshi
Francklyn Trouel,493-238-4656,Indonesia,Kotaagung
Davidson Hoyles,402-637-1367,Yemen,Sūq Sibāḩ
Sebastien Chuter,109-217-0021,Vietnam,Thị Trấn Phú Mỹ
Helga Hawyes,302-623-3138,Argentina,Salta
Poppy Severn,219-255-9444,Brazil,União da Vitória
Mahmud Kiley,868-951-5999,Ukraine,Khrystynivka
Peg Kordt,274-696-2041,Indonesia,Sindang
Hallsy Harding,408-888-3192,Peru,Pomahuaca
Zsazsa Galletly,955-252-5260,Vietnam,Thị Trấn Nghèn
Gerta Denisyuk,430-446-8022,Canada,Irricana
Timmie Ebourne,186-587-4701,Armenia,Dalarik
Ezra De Pietri,739-221-3389,Colombia,Espinal
Luelle Grishakov,418-578-4001,Belarus,Svyetlahorsk
Teri Oakden,744-742-1613,Indonesia,Umbulan
Mandy Grieveson,984-183-1990,China,Houjiachuan
Kakalina Kennelly,590-909-0818,Portugal,Nogueira do Cravo
Laurie Hardstaff,862-679-6623,Russia,Novomoskovsk
Willdon Sidwick,148-417-4939,Italy,Messina
Ruggiero Byng,935-722-1392,China,Dianwan
Tiebout Slimming,253-359-7524,United States,Tacoma
Delmor Stokoe,635-424-6615,Israel,Metulla
Catarina Gerrish,284-829-9889,Sweden,Lysekil
Frank Linstead,718-806-7999,Vietnam,Long Hồ
Milicent Riddler,116-210-0155,China,Tangwang
Shelba Boxhill,282-395-5825,Philippines,Santa Fe
Peggy Ghidoli,921-668-1507,Philippines,Canturay
Gray Guyonneau,136-114-2654,Philippines,Naga
Delila Norval,643-461-3106,Kazakhstan,Shymkent
Golda Curror,699-631-4106,Ecuador,La Troncal
Rianon Phillippo,802-346-1225,China,Yueyahe
Erinna Leynagh,869-697-8000,Indonesia,Bitung
Yoko Broadey,490-153-1912,Indonesia,Fatukanutu
Jessamyn Dover,344-456-4434,Uruguay,Santa Bernardina
Zita Paolone,488-848-4491,Mexico,La Virgen
Bran Barbery,946-952-3289,France,Saint-Grégoire
Charisse Duddle,337-401-5057,Russia,Vyshneye Dolgoye
Seka Klosges,205-415-3516,Togo,Badou
Marcellina Scollan,671-629-5796,Philippines,Catarman
Xenos Marrian,903-390-0474,Iran,Qīr
Reuben Abrey,814-119-6383,Indonesia,Nifuboko
Rhodie Hammonds,206-182-5291,Hungary,Győr
Gayel Pragnell,435-822-8409,Indonesia,Sridadi
Lovell Caldwall,408-473-4876,China,Siquanpu
Dulcia Mullaney,874-247-8663,Indonesia,Cikupa
Elvyn Shires,283-202-1581,Indonesia,Woro
Corrina Hefferon,476-216-1055,Malawi,Dedza
Antonius Nutkins,557-375-0243,Poland,Łysomice
Avis Wenban,313-982-8687,China,Liangkou
Giustino Broker,582-672-9619,France,Paris 09
Kane Vlasyuk,658-249-9826,Slovenia,Kidričevo
Daile Tomblin,892-305-6919,Haiti,Dondon
Jaquenette Cornils,555-397-6547,Albania,Dajt
Quentin Pengilley,283-324-1004,China,Luxi
Merwyn Delgua,963-244-4908,China,Bayan Hure
Chrissy Dils,105-943-1722,China,Luoshanchuan
Mayor Matussow,500-216-4182,Peru,Socos
Shaine Mustchin,585-223-1308,Russia,Venëv
Trudie Dineges,909-907-5729,France,Mont-de-Marsan
Genovera Scafe,918-670-3307,United States,Tulsa
Innis Priel,870-244-2983,Thailand,Ban Chang
Gifford Banstead,387-273-3711,Armenia,Dashtavan
Lavinie Rye,449-984-3030,Philippines,Narvacan
Kassia Giblett,970-957-2227,Armenia,Malishka
Tabbatha Abbay,117-177-7019,Ecuador,Calceta
Yorke Pinniger,762-826-2826,Syria,Al Mālikīyah
Christabel Nowakowski,646-908-3727,China,Namling
Clarita Heald,653-120-0398,Colombia,Buenaventura
Esteban Hewertson,808-742-8912,Philippines,Camiling
Lyndell Melin,763-867-7790,Philippines,Buawan
Yetty Bodell,852-311-2281,China,Donghe
Myca Benham,382-242-1292,Netherlands,Venlo
Weston Checci,218-703-2528,China,Jixing
Wheeler Etty,658-919-2572,Indonesia,Cibangban Girang
Rockie Tunnah,740-223-4423,Greece,Léchovo
Charlot Davern,210-740-8089,China,Santai
Ralph Kemet,469-559-9869,Martinique,Fort-de-France
Lisha Bradden,485-613-3957,Brazil,Salvador
Jessie Troth,596-398-9435,Indonesia,Pinggan
Emmy Moreinis,139-409-0249,Philippines,Buenavista
Ermengarde Deeman,830-945-9303,Peru,Tantamayo
Tony Libbe,147-394-6326,Cyprus,Leonárisso
Zoe Velez,574-178-2787,Myanmar,Myingyan
Nesta Ricciardo,900-223-0292,Indonesia,Manna
Blancha Batrick,647-815-1591,Philippines,Novallas
Gerrie Pay,947-900-7269,Japan,Sukumo
Renard Drohun,329-743-2671,Poland,Księżpol
Neil Rameaux,821-571-8368,Vietnam,Phù Mỹ
Rogerio Joriot,696-643-0846,China,Qimantage
Falito Cockling,199-986-3083,China,Changliang
Agnella Bellhouse,235-314-2218,Germany,München
Tanya Jedryka,984-718-2690,Brazil,Lagoa do Itaenga
Maurise Rusk,929-921-6677,Netherlands,Brunssum
Samuel Maria,614-382-8273,Russia,Detchino
Jenilee Tacker,402-852-1645,United States,Omaha
Jorry Carrodus,473-602-7939,Sweden,Finspång
Kandace Podmore,954-691-8839,Bolivia,Mairana
Brendon Syms,205-900-9236,Mexico,Rafael Hernandez Ochoa
Tull Grimsdell,596-458-6266,China,Yeniugou
Douglass Spreag,816-574-9388,Indonesia,Krajan Kedungsalam
Vivi Veschi,823-521-4279,Latvia,Viesīte
Adriano Merwood,204-339-5912,Portugal,Cabanas
Ketti Ogley,340-487-5422,Netherlands,Tilburg
Wilone Edlin,379-409-1934,Portugal,São Vicente de Ferreira
Dorie Raddin,934-477-8168,Russia,Perepravnaya
Rancell Fri,347-638-2134,United States,Flushing
Angelique Anfossi,206-983-5957,China,Wuxia
Giulio McMeanma,211-344-9534,China,Xinpu
Kellby Watkiss,299-226-7414,China,Qinglung
Broderick Preene,432-284-5647,El Salvador,Conchagua
Jeramie Caldroni,418-342-3005,Indonesia,Huineno
Jaymie Kochl,414-491-1981,Argentina,Clorinda
Chelsey Prescote,884-677-3585,China,Xiayunling
Fleurette Cereceres,952-387-6791,Sweden,Göteborg
Mandel Cattellion,862-487-7054,Poland,Nowy Dwór Mazowiecki
Linet Kitchener,429-813-1716,Brazil,Penápolis
Riane Alyokhin,348-497-6249,Sweden,Piteå
Donnamarie Gudgion,802-292-6036,Poland,Rymanów
Nikola Klug,320-592-5429,Belize,Belmopan
Konstance Worsalls,680-498-2107,China,Zhangpu
Verney Saye,738-468-2183,China,Ganting
Coletta Mosey,510-716-5627,Indonesia,Ciputih
Dwight Iliffe,378-332-0011,Philippines,Ugac Sur
Willette Facher,231-168-3175,Serbia,Pančevo
Rogerio Aleksandrov,664-425-0967,Ecuador,Nueva Loja
Dorie Creer,395-118-4747,Indonesia,Kebonsari Kidul
Cammi Swane,453-687-0999,Nigeria,Nkwerre
Vanya Spearett,757-376-1967,Russia,Yalkhoy-Mokhk
Torry Duferie,350-208-6927,Greece,Stefanavíkion
Myrlene Ewan,921-197-0917,China,Heshi
Orson Everwin,589-387-6118,Mexico,La Loma
Hermione Bonnette,135-718-8729,Philippines,Allacapan
Joli O'Lahy,344-885-4476,Poland,Krynki
Casie Rainsbury,357-676-4484,Portugal,Ribaldeira
Alastair Triplet,225-399-6322,Morocco,Amizmiz
Ev Richardot,743-394-0808,Poland,Jedlnia-Letnisko
Brand Freke,716-672-7033,Argentina,San Martín de los Andes
Stavro Phillps,132-456-1437,Ukraine,Vin’kivtsi
Frasco Mocquer,123-245-4638,Cuba,Centro Habana
Prudy Alten,115-986-8201,Honduras,Araulí
Brennan Holdey,112-798-9535,Philippines,Pandan Niog
Lettie Mitham,112-154-6147,Mongolia,Mardzad
Leah Bartolic,153-557-6754,Niger,Zinder
Shurlock Mirrlees,643-123-4762,Argentina,Quitilipi
Staford Turfs,630-497-6164,Indonesia,Dinititi
Sheba Cranstoun,738-193-7164,Philippines,San Miguel
Britta Lammert,438-679-8259,China,Chadian
Charity Woloschinski,362-768-8801,Brazil,Aracruz
Whittaker Flott,690-679-4553,China,Quma
Selie Sedgman,633-811-6259,Philippines,Daet
Pammi Thickins,375-341-3760,Malta,Mqabba
Kirk Wilden,113-534-4960,Bulgaria,Kotel
Jillane Eilhermann,752-631-2473,China,Meixi
Augustina Daltrey,976-444-0369,Thailand,Sirindhorn
Grantley Aujean,783-779-9677,China,Honghualiangzi
Anabelle Snelling,906-262-2389,Portugal,Avanca
Paulo Brogan,218-237-4981,Sweden,Tyresö
Aurore Boam,842-731-4471,Indonesia,Lewolere
Caril Piche,178-790-9206,Indonesia,Sukasada
Sheppard Evetts,655-306-0296,Indonesia,Karara
Nathaniel MacPeake,330-180-7121,China,Jieting
Tanhya Kemmet,113-352-9761,Sweden,Kil
Ariella Blazy,577-367-6202,China,Chengji
Federico Novak,754-766-5485,France,Bourges
Andriette Macourek,890-811-2081,China,Gouping
Perren Fitzsimon,988-667-0805,Indonesia,Jeblog Satu
Joyann Giraudel,849-687-7120,Austria,Großklein
Felicio Orgel,706-153-9902,Republic of the Congo,Brazzaville
Dory Giacubo,849-256-4037,Indonesia,Rajapeni
Malena Sawney,181-724-5326,Netherlands,Zoetermeer
Gaspar Duns,731-695-7559,Belgium,Antwerpen
Leda Revell,348-815-2247,Nigeria,Amassoma
Robbin De Giorgi,927-234-3840,Poland,Kleszczów
Julita Careswell,617-322-6032,Afghanistan,Alah Sāy
Kelci Wandrich,581-645-9790,France,Nice
Beitris Kitter,588-519-1162,China,Meizhuang
Merci Hukins,883-540-3207,Indonesia,Sibubuhan
Devan Dewfall,244-853-4011,Vietnam,Đà Bắc
Jdavie Sockell,658-300-6744,Morocco,Tilmi
Franklin Grimditch,654-646-1996,Indonesia,Tunjuk Selatan
Alexei Braybrooks,772-873-9149,China,Liuduzhai
Noe Misson,684-435-5765,Brazil,Prata
Orin Baptie,390-897-3573,Indonesia,Lanos
Melody Chasemoore,506-740-9281,Indonesia,Langgen
Kerby Bilovsky,909-417-0364,Indonesia,Tlogotunggal
Dare Westwater,944-947-4447,Canada,Varennes
Agustin Surmeir,845-174-3247,Chile,Chonchi
Ardyce Bullcock,430-915-6217,Macedonia,Лабуништа
Vinnie Ryce,488-751-6801,Guinea,Faranah
Annecorinne Sills,726-168-3219,Sweden,Enskededalen
Padraic Prise,693-803-8228,China,Liutangting
Lucilia Kimblin,452-751-1230,Indonesia,Purbalingga
Genevieve Shimwall,352-502-3149,Brazil,Mirandopólis
Teodoro Hefforde,581-327-5775,Thailand,Yasothon
Ailene Cullivan,129-845-2204,China,Songshan
Wyatt Sterland,401-283-9840,Russia,Muranovo
Clarke Baildon,792-259-7984,China,Maoping
Garnette McClary,985-436-2989,Ukraine,Velyka Bilozerka
Isa Arrighetti,180-513-4034,Russia,Lipin Bor
Alvy O'Doran,937-802-8889,Estonia,Loo
Catarina Moule,105-576-9781,China,Shicong
Gusta Moyser,227-428-0803,Russia,Kedrovyy
Zacherie Wealthall,176-887-0822,Indonesia,Citeureup
Dame Roskrug,628-352-8133,Serbia,Višnjićevo
Anatola Miroy,142-811-2794,France,Romilly-sur-Seine
Scarlett Hunton,341-924-4023,China,Dongpu
Madison Mathen,727-398-2225,China,Shicheng
Daloris Patshull,313-671-2120,Vietnam,Cẩm Phả
Quintin Chalice,938-950-5543,Angola,Luanda
Lazarus Hugnin,915-979-7482,China,Magitang
Sargent Harring,831-224-1083,China,Hengtang
Natala Gimber,506-862-9811,China,Baiyang
Christa Le Galle,918-872-2673,China,Majia
Almire Doree,319-392-0567,Sweden,Falun
Dag Gollin,449-453-8383,Brazil,Franco da Rocha
Herve Lambotin,535-675-9280,Japan,Kobe
Annalise Sooley,953-863-0271,Russia,Burmakino
Edouard Murrthum,761-443-4905,China,Shihui
Gaston Brockway,466-660-4499,Croatia,Orahovica
Xenia Tregenna,136-485-1529,Brazil,Pará de Minas
Augusta Guirau,731-107-4818,Czech Republic,Žeravice
Camella Battams,582-495-6748,France,Metz
Sax Bolsover,763-221-0097,United States,Maple Plain
Eric Pizzie,514-337-5377,Colombia,Campoalegre
Charita Spaven,617-949-8798,United States,Newton
Emmalyn Paz,321-826-5385,China,Xinji
Aleksandr Ardley,645-270-6127,Indonesia,Pamakayo
Leonard Seery,338-661-2023,Latvia,Vangaži
Nicolea Atter,858-649-7741,Kuwait,Az Zawr
Bord Deathridge,380-491-4282,Poland,Dobrzeń Wielki
Cal Humes,641-142-4746,China,Huamu
Rosco Maulden,289-928-7176,Philippines,Cabadiangan
Merci Scotson,121-227-0627,France,Caluire-et-Cuire
Christean Harmstone,605-897-7413,Indonesia,Sukowiryo
Cherice Paur,156-629-7557,Poland,Garwolin
Isador Knight,927-668-6934,Russia,Tbilisskaya
Ina Tibalt,127-361-3070,Thailand,Nam Khun
Gris Dmitrichenko,912-444-4298,Sweden,Solna
Barrie Hugnot,639-565-3628,China,Dehang
Miguel Purslow,223-536-2800,Poland,Pawłosiów
Dasha Taverner,102-743-3762,Venezuela,Lecherías
Ninette Byrom,770-714-8164,Madagascar,Ambalavao
Rebe Fayer,846-132-2344,Sri Lanka,Ratnapura
Fairfax Chesterfield,253-622-8283,Madagascar,Fort Dauphin
Marilin Case,516-325-2746,Norway,Oslo
Catherine Callum,495-581-2435,Botswana,Sebina
Alain Merrywether,310-952-7604,China,Zhendu
Kali Damrell,606-281-0257,Philippines,Bintawan
Erasmus Matousek,105-649-2103,Indonesia,Bontang Baru
Myrle Morican,105-523-9964,Brazil,Bauru
Marius Rimmington,689-769-0151,China,Nawu
Harlie MacGowan,913-844-5976,Brazil,Engenheiro Beltrão
Bibbie Boyn,549-991-4091,Thailand,Bang Ban
Jemimah McCart,696-527-1957,Japan,Kosai-shi
Erie Tolworthie,533-779-9768,Laos,Khoa
Erie Stopper,647-434-1106,China,Guiwu
Hashim Brigginshaw,345-262-9900,France,Saint-Péray
Prince Ardy,616-847-9347,Brazil,Juiz de Fora
Renato Burriss,903-417-3741,China,Huzhen
Zitella Bouts,910-188-5033,China,Fangxi
Neel Winspurr,612-881-1821,Indonesia,Sedayulawas
Ardelis Daynter,577-151-6691,Indonesia,Borehbangle
Stefania Haverson,726-846-2262,Vietnam,Phong Điền
Elita Hariot,487-156-5963,China,Nanbao
Gasparo Littlekit,902-366-0211,Poland,Rakszawa
Kristos Smedley,891-154-3483,Pakistan,Dera Murād Jamāli
Tyne Killerby,989-426-7087,France,Fécamp
Marlon Donisthorpe,367-646-3268,China,Xuxiake
Johnathan Ciubutaro,994-292-5282,New Zealand,Thames
Drake Kilbourn,186-831-1902,China,Guidong Chengguanzhen
Arne Jump,729-436-2742,Portugal,Seixo
George Sibbering,158-649-1682,China,Humen
Junia Bernhardsson,190-659-1634,China,Huangshapu
Jay Korlat,619-240-5892,Serbia,Novi Karlovci
Prince Brimham,728-282-0368,Russia,Sasykoli
Angie Hould,147-689-1268,Philippines,San Antonio
Corbett Tollet,137-770-9437,China,Nanzhihui
Josephina Dietsche,324-615-8639,Brazil,Feijó
Elfreda Langthorne,452-288-0302,United Kingdom,Kirkton
Matias Jermey,298-271-2000,Philippines,Paclolo
Mariel Wilbud,441-756-7515,Sweden,Askersund
Bartholomeus Parsonson,468-827-1753,Iran,Bandar-e Lengeh
Nikita Paulich,604-963-1193,Liberia,Gbarnga
Jenelle Werrilow,692-984-6922,Poland,Kęsowo
Ester Giordano,824-715-0341,Philippines,Conel
Dorthea Galbraeth,649-979-9397,China,Jixing
Chaddie MacGaughie,611-184-3182,Poland,Chojnice
Jase Fanner,472-617-3583,Dominican Republic,Las Matas de Santa Cruz
Amelina Briereton,567-219-4509,Czech Republic,Velké Bílovice
Arin Rassmann,205-938-5558,Israel,Tirat Karmel
Justen Plaister,877-504-6092,Guatemala,Escuintla
Rafferty Loud,723-554-6956,Sweden,Ludvika
Billye Wonter,545-679-1685,Poland,Mników
Nolly Pasek,714-821-4949,Indonesia,Rejoagung
Camille Gleader,631-861-3350,Indonesia,Dalong
Fredek Lassells,239-410-4115,Russia,Novonikol’sk
Zeb Bayless,482-651-3393,China,Sandao
Steffane Lauxmann,916-161-9445,United States,Sacramento
Ephrayim MacShirie,980-360-8649,Philippines,Santo Niño
Trace Rosenfelt,997-955-1714,China,Majie
Andria Huggin,545-574-6670,Kenya,Londiani
Siobhan Gullick,211-427-9287,Czech Republic,Načeradec
Gavin Sawbridge,786-943-2217,Denmark,København
Ginni Wittier,175-939-9906,Tajikistan,Orzu
Jonie Wallace,278-445-4623,France,Roissy Charles-de-Gaulle
Nata Gookes,256-616-2904,Guatemala,Gualán
Sheena Kettridge,684-350-9832,Pakistan,Hāfizābād
Micheal Trimnell,688-585-6062,France,Paris 11
Byrle Ravel,380-517-7071,China,Guyang
Woodrow Stockow,305-345-7885,Philippines,Hilotongan
Amii Kemish,272-359-2725,Portugal,Pereiro
Hill Grzes,437-533-6493,Netherlands,Beverwijk
Kipp Haylett,591-619-4709,Panama,Palmira
Frannie Haggidon,970-544-4285,China,Xihuaiba
Brittan Jiggle,173-878-3163,Colombia,Tumaco
Caren Higounet,583-869-7618,Sweden,Luleå
Delinda Matys,421-573-5249,Philippines,Sultan Kudarat
Rand Burney,517-454-0277,Indonesia,Jagong
Sandor Burland,751-969-5537,Brazil,Tubarão
Elliot Britt,481-109-9183,Honduras,Morazán
Elise Tweedie,605-630-5895,Peru,Ollachea
Helga Beresfore,412-414-1072,France,Besançon
Hirsch Selland,568-496-7952,Iran,Qeshm
Ginny Streather,118-620-6560,Finland,Uusikaupunki
Vitia Freeborn,379-849-1087,Indonesia,Pajung
Therine Clows,502-797-2338,Czech Republic,Klášter
Jordana Carek,209-702-0299,Syria,Sahnaiya
Malia Calkin,349-289-3226,Indonesia,Pamotan
Gusella Ketts,800-975-6839,Indonesia,Cinyawang
Harcourt Danielsen,930-817-6082,Albania,Lukovë
Milo Goldston,926-608-8038,Colombia,La Jagua de Ibirico
Marijo Bennett,873-271-3685,Brazil,Salvador
Karlyn Fensome,819-594-4043,Brazil,Três Corações
Berty Seckington,854-300-4947,Macedonia,Ilinden
Austin Dupoy,168-244-8479,Colombia,San Carlos
Tedi Dubble,195-300-6136,Poland,Zielona Góra
Janot Dietsche,520-696-2366,Philippines,Oroquieta
Sean Boulsher,651-892-0739,Panama,Pacora
Vivianna Servant,424-946-0771,Argentina,Cafayate
Maribeth Cullum,864-386-0982,United States,Spartanburg
Tilda Cerman,704-281-9306,Russia,Kraskino
Alene Salvidge,789-169-4160,China,Guantang
Ericka Derrington,862-176-6974,Indonesia,Kedungwaru
Gerald Boughtwood,528-161-6899,China,Pingyi
Ramon Boyce,692-152-6519,Albania,Përmet
Dina Byre,652-581-6915,Philippines,Malayal
Flor Novkovic,202-745-0475,Thailand,Mukdahan
Olva Ipgrave,857-829-9051,Brazil,Parobé
Sheeree Ecclestone,209-287-3012,China,Shangjing
Preston Ferrarotti,244-426-8674,Thailand,Udon Thani
Pris Fremantle,163-603-4676,Philippines,Sarrat
Romain Barensky,405-172-7081,Finland,Loppi
Steward Staton,271-226-6315,China,Xianyan
Manfred Fotitt,860-545-8987,United States,Hartford
Kristi Labrone,200-267-6523,Russia,Vrangel’
Vita Maywood,120-492-1490,China,Qufu
Edith Milner,508-520-5195,Indonesia,Bulangan
Hastie Keasley,244-278-4677,Indonesia,Poli
Quincy Vannini,248-903-9089,Morocco,Zaïo
Ysabel Larcombe,116-778-7388,Colombia,Puerto Santander
Karee Petr,969-397-3392,Czech Republic,Luka nad Jihlavou
Rowney Raspel,819-743-7861,Poland,Łaziska Górne
Cesya Ceyssen,913-309-6414,Argentina,Comandante Luis Piedra Buena
Joey Gillean,350-914-4243,Peru,Pujocucho
Gage Knuckles,692-810-3213,Greece,Skotoússa
Maressa Biles,427-611-6828,Peru,Pomabamba
Olga Glanert,212-583-3717,United States,Jamaica
Koressa Tomaino,381-503-5866,Indonesia,Kudusan
Waiter Hinckley,402-855-6145,Spain,Santiago De Compostela
Miguela Richardson,309-133-9237,Slovenia,Šalovci
Linzy Simpson,895-821-7563,Poland,Brody
Simonette Kenworthey,641-714-1903,Japan,Haibara
Christiane Rapa,808-691-6774,Thailand,Sapphaya
Eddie Arman,346-794-9179,China,Xiaochi
Elyssa Wilber,609-227-3858,Thailand,Nong Khae
Kristoffer Finnis,814-883-0479,Russia,Bira
Ranna Flintoff,248-944-0680,Poland,Lanckorona
Harper Burry,230-320-3675,Brazil,Santana
Stacia Nussii,878-984-8806,Russia,Kotel’niki
Ginnie Billington,599-156-6073,Philippines,Santa Brigida
Kipp Pritchitt,275-764-3513,Azerbaijan,Yeni Suraxanı
Veronica Tompion,631-227-0020,Uzbekistan,Gazli
Daron Dillicate,666-987-3182,Indonesia,Suwalan
Marysa Folan,384-499-8750,China,Pantian
Sonia Robertsson,538-949-9440,Indonesia,Bangus Kulon
Kip Libbis,854-290-4514,France,Melun
Dasha Clurow,437-882-8067,Tajikistan,Shaydon
Prudi Franklin,408-215-7635,Venezuela,Farriar
Gladi Bowick,506-654-7832,China,Tailing
Noby Kix,129-109-2963,Czech Republic,Veselí nad Moravou
Ardisj Thying,774-318-6741,Russia,Gorbatov
Horatia Flores,320-995-9540,China,Xinsheng
Clayborn Kalkhoven,247-197-2889,Poland,Kampinos
Jemima Follitt,230-241-2029,Russia,Vysotskoye
Devora Spurrior,121-138-4967,Sweden,Falun
Sander Mapowder,678-386-4460,China,Taishang
Carlita Codling,901-224-9605,Tanzania,Masuguru
Pauletta Wintle,808-231-1409,United States,Honolulu
Manuel Bein,877-741-0568,Indonesia,Kerek
Muffin Ilyinykh,693-956-7426,China,Zhelin
Stesha Dormand,343-710-2666,China,Luodong
Max Furmagier,485-390-7504,Brazil,Tamandaré
Bertha Winterflood,972-724-0085,China,Jiangyan
Nicko Yeudall,547-655-6937,Sweden,Jönköping
Portie Graddon,581-696-2287,Mexico,Independencia
Thomasin Binham,387-932-8898,China,Mengdong
Rice Greenman,288-268-2410,China,Jiangyi
Ruby Wilder,168-674-9280,Yemen,Lawdar
Lisha Gladdis,466-481-7034,Cameroon,Bekondo
Clerissa Aggas,477-609-8287,Chile,Frutillar
Berenice Castiblanco,842-373-2932,Sweden,Järna
Papagena Minear,609-674-2017,Greece,Palekastro
Cathe Persence,334-224-7577,Indonesia,Sukosari
Austin Phidgin,226-587-1056,Andorra,les Escaldes
Ulrica Moukes,647-845-1131,Poland,Ostrowsko
Ansley Heberden,708-804-8606,Russia,Mullovka
Nickolas Maxwale,841-150-5637,China,Wanjiazhuang
Kimberlyn Lalley,757-510-1372,China,Suyang
Yves Demare,900-113-5892,Philippines,Kalandagan
Niven Franceschino,442-258-1067,Rwanda,Musanze
Tonye Keach,854-573-2710,Philippines,Buayan
Kevan Beaten,418-551-2810,Russia,Svecha
Nisse Milmith,655-638-6339,Sweden,Bromma
Darin Bonefant,906-227-9775,Argentina,Carhué
Minnie Gipson,877-957-2437,France,Guérande
Nichol Winman,945-696-2600,Albania,Lunik
Ethyl Scamadine,204-545-9611,China,Beidajie
Emmery Le Fleming,170-344-5246,Brazil,Parobé
Joyous Yarker,214-560-8133,United States,Dallas
Pollyanna Abbott,946-561-3361,Japan,Toyama-shi
Thatch Stone Fewings,250-345-2940,China,Qufu
Catlin Dinsmore,779-355-1184,Indonesia,Mayong
Naomi Pigford,381-233-0565,Russia,Nyandoma
Tabbi Breitler,363-656-5834,Madagascar,Ambovombe
Percival Howchin,847-779-6606,Poland,Zabierzów
Chandler Scandrite,687-223-6364,Russia,Kondinskoye
Linda Weinham,488-212-2556,Philippines,Infanta
Nicholas Besnardeau,261-756-2481,Thailand,Kaset Sombun
Cissy Keyzman,516-713-5174,Brazil,Santa Vitória do Palmar
Ania Bramham,355-808-6133,Albania,Laç
Rogerio Attiwill,693-193-9193,China,Yuandun
Jo ann Evequot,582-906-0697,Iran,Javānrūd
Hanna Ellicombe,576-395-3639,Brazil,Paty do Alferes
Sheffie Trayes,392-693-3549,Indonesia,Rowokangkung
Thoma Sporton,257-612-6208,China,Shuitou
Petey Elgie,508-301-4334,Russia,Kirovsk
Camila Whillock,443-402-3258,Sweden,Hässelby
Rafaelia Patient,775-651-0086,France,Cognac
Teodoro Lambert,123-671-0355,Sweden,Örebro
Helge Ewles,303-307-1268,Russia,Khvatovka
Herrick Barfford,493-436-0643,Albania,Mamurras
Lexie Tuttiett,637-554-0522,Philippines,Calape
Jeramie Venn,295-940-7094,Venezuela,Papelón
Diana Stovine,950-450-4589,Germany,Lübeck
Merv Mundy,953-361-7183,Sweden,Deje
Killy McCrachen,753-144-6677,Peru,Chugur
Kalvin Kingstne,271-974-7126,Vietnam,Phu Loc
Pernell Abbotson,513-755-8745,Thailand,Udon Thani
Ardine Hallbord,584-759-0209,France,Saint-Maurice-l'Exil
Jase Kinset,544-426-8133,Poland,Lisia Góra
Der Bleackley,220-727-9992,Czech Republic,Havlíčkův Brod
Arnie Cartin,772-893-9380,Paraguay,Fram
Klarika Medford,469-295-3790,Portugal,Póvoa
Elva Tooze,872-233-6839,Chad,Faya-Largeau
Connor Jaspar,981-828-5621,Croatia,Andrijaševci
Fredric Worthing,766-607-3786,Argentina,La Eduvigis
Terry Strank,691-171-9443,Italy,Roma
Kailey Craven,765-141-1168,China,Fengle
Viviyan Dering,276-668-7922,France,Orsay
Haleigh Hune,999-956-5642,Chile,Iquique
Ruth Kovalski,296-877-1861,Thailand,Chang Klang
Carolan Siene,439-479-3850,Russia,Lyubertsy
Mehetabel Franceschi,175-985-8924,Ukraine,Vyshneve
Curtice Claessens,448-590-6549,Marshall Islands,Likiep
Jilli Morcomb,451-942-4103,Peru,Hualgayoc
Prinz Hartless,381-934-7505,Mexico,Santa Rosa
Margo Powdrill,999-814-2605,Philippines,Libertad
Stearn Coling,465-371-1776,Philippines,Bankaw
Pauletta Wride,409-184-0910,Poland,Jelcz
Cathy Bacop,780-316-2637,South Africa,Eshowe
Ade Espin,718-874-8121,Russia,Novodmitriyevskaya
Kathie Shemilt,514-177-7019,Azerbaijan,Biny Selo
Bayard O'Corren,701-654-1631,Mongolia,Bayantal
Melanie Frankton,253-626-4065,Indonesia,Babat
Lesly Antonoczyk,657-413-6278,China,Gongli
Devora Cathro,695-966-4353,Peru,Apongo
Cad Tondeur,150-411-7183,China,Putou
Teodorico Thickett,329-641-1592,Indonesia,Lembang
Vina Womack,635-698-8619,Germany,Freiburg im Breisgau
Glenine Bruckman,989-734-2835,Peru,Breu
Swen Markos,641-819-8349,Indonesia,"Laikit, Laikit II (Dimembe)"
Kattie Poluzzi,126-619-5137,Indonesia,Melati
Theda Bengtsen,927-124-5442,Serbia,Kula
Tami Ilewicz,871-122-8456,Portugal,Ribeira Quente
Carlie Leeke,688-824-1354,Czech Republic,Loučovice
Romain Saban,216-905-8930,Indonesia,Riangbao
Javier Le Franc,121-619-9462,France,Niort
Blithe Broom,492-763-5365,Nigeria,Bukuru
Sherri Mabbitt,272-354-0372,Belarus,Chavusy
Allis Burchett,445-764-3865,Honduras,El Benque
Bliss Linley,625-245-6598,Pakistan,Kohāt
Tanney Boon,448-381-7876,France,Le Mans
Pieter Piesold,598-138-8251,China,Juzhen
Martha Dils,809-956-4692,Poland,Pokój
Gwenore Lesper,333-439-2286,China,Jiuli
Grissel Hush,214-434-2319,United States,Garland
Christina Bowhay,943-289-8944,China,Zhonghe
Percival Eastabrook,244-319-7266,Sweden,Järfälla
Lindi Izard,564-941-5760,Brazil,Matozinhos
Dmitri Burgiss,701-243-9985,Portugal,Lameira
Terese Delahunt,221-131-7021,Portugal,Cabanas
Shela Filson,145-365-7836,Brazil,Astorga
Loise Pettyfar,284-221-3406,Egypt,Qinā
Cori Tombleson,162-435-5284,Cuba,Banes
Gar Ferrino,990-339-2872,Philippines,Napalitan
Katee McGettigan,602-634-5905,China,Danxi
Marcello Burras,269-830-8603,Kyrgyzstan,Kant
Demetria Hunton,685-630-4273,Argentina,San José de Jáchal
Guthrie Rablen,195-931-3337,Brazil,Ji Paraná
Rhetta Favel,241-252-1351,Sri Lanka,Kandy
Broddie Simonite,923-548-6988,China,Nanshan
Tait Witcherley,491-104-4122,Sweden,Kalmar
Ruth Reynalds,764-559-1454,Colombia,Puerto Santander
Maud Spiers,680-159-1319,Czech Republic,Bakov nad Jizerou
Benji Tizzard,340-607-5139,China,Shaogongzhuang
Damita Westoll,648-982-8019,Indonesia,Bendo
Austin Dodson,912-523-3025,Argentina,General Belgrano
Urson Ramstead,264-962-4882,Russia,Svetlogorsk
Sharleen Padkin,748-284-1798,Indonesia,Kadubincarung
Valenka Cowill,999-317-4395,China,Kunmi Erdi
Ninnette Roman,360-996-7643,United States,Vancouver
Shane Kennea,163-446-2690,Thailand,Khon San
Leoine Cornelissen,939-203-7389,Poland,Pawonków
Kev Tosspell,804-399-5590,Paraguay,San Pedro del Paraná
Hobie Childes,367-118-6898,Colombia,Bogotá
Vanya MacSwayde,890-596-6988,Indonesia,Tlogotunggal
Pascale Elcombe,638-732-0938,Indonesia,Awayan
Coralyn Tireman,363-718-9370,Germany,Berlin
Ki Meineken,869-351-3014,Palestinian Territory,Gaza
Kin Stillert,673-198-7628,Philippines,Parion
Diana Surmeyer,627-335-4975,Mongolia,Shireet
Waylen Birbeck,172-860-6170,Indonesia,Nangalimang
Aldis Alldridge,657-672-9577,Philippines,Kabacan
Hogan Klammt,617-928-9872,Colombia,San Carlos
Harbert Mowen,866-121-0286,Marshall Islands,RMI Capitol
Yale Paddon,677-307-0398,Ukraine,Apostolove
Yankee Franken,794-235-4511,Canada,Cowansville
Salim Bucknall,257-822-3426,Philippines,Carusucan
Irene Hulks,447-454-9309,Croatia,Pitomača
Emory Plaide,513-792-3751,Sweden,Trollhättan
Michal Mellsop,176-296-0725,Japan,Fukuyama
Sibelle Bollans,414-686-1200,Morocco,Ouaoula
Della Hember,655-957-5671,Nigeria,Warri
Kerr Ferreira,683-725-2018,China,Xinquansi
Niven Solan,409-207-7189,Poland,Trzcinica
Moises Duesbury,807-629-3186,Indonesia,Katur
Gilberto Jurgen,574-261-3271,Brazil,São Paulo
Isak Beers,268-224-3547,Czech Republic,Staré Město
Gnni Onele,151-904-0448,China,Guohe
Leopold Janatka,310-181-3305,United States,Inglewood
Trudy Drury,167-144-0556,Lithuania,Daugai
Donny Gouch,445-397-9940,Indonesia,Isak
Joachim Fludder,900-284-5068,Venezuela,Mene de Mauroa
Madelon Flanagan,969-482-3396,Indonesia,Margahayu
Patrick Stubbins,981-632-7783,Philippines,Kalandagan
Chryste Abeles,553-588-2160,Peru,Rosaspata
Had Spellessy,442-126-6569,Cameroon,Edéa
Ariel Dark,505-526-5451,Argentina,Darwin
Abbye Denisard,506-789-5290,China,Fulong
Lucias Needham,458-151-5365,China,Yinying
Gasper Filip,856-213-9017,Portugal,Baganha
Guillermo Dissman,354-737-5915,Poland,Kowale
Georgi Gosnoll,293-840-3513,Italy,Bologna
Marchelle Atcheson,395-309-0011,Yemen,Markaz Bilād aţ Ţa‘ām
Dorolice Semiraz,677-648-6027,Russia,Staraya Kupavna
Ivy Kimmins,963-774-5560,China,Zhongzhang
Stafford Longley,238-218-4255,Indonesia,Blawi
Nicolette Lord,156-422-4541,China,Xuhang
Boony Reijmers,474-924-1670,Nigeria,Lame
Trista Phidgin,721-987-0720,Spain,Cartagena
Seamus Itzkovwitch,909-720-6440,Kenya,Kinango
Jobye Vennart,593-632-7236,Democratic Republic of the Congo,Bukavu
Anders Trehearn,502-663-8428,Ukraine,Mysove
Salvatore Wintersgill,797-468-0369,Tanzania,Chanika
Korrie Dods,684-731-7842,Indonesia,Kemang
Edlin Southwood,419-314-8402,United States,Toledo
Brig Beards,986-877-0282,Mexico,San Marcos
Wanda Kynaston,942-611-1937,Bulgaria,Kiten
Archie Tidgewell,406-664-0806,Peru,Colcabamba
Darcey Deegin,999-112-3956,Sweden,Västervik
Neill Dark,467-286-2815,Venezuela,San Pablo
Archy Antognoni,797-431-5162,Russia,Ordzhonikidzevskiy
Vi Ugo,735-813-9268,China,Mayuan
Hillel Cullivan,300-610-2399,Japan,Yōkaichiba
Selia Cranmore,546-464-9413,Indonesia,Purwokerto
Cynthia Lande,998-483-6581,Dominica,Pointe Michel
Ursuline Mounsey,213-912-7155,Montenegro,Bijelo Polje
Estrellita Garrique,551-703-1063,Bulgaria,Dimitrovgrad
Regina McKeag,617-768-2078,Russia,Berëza
